TAF KEYW 022324Z 0300/0324 19005KT P6SM FEW020 BKN150 
  FM030400 19008KT P6SM VCSH SCT020 BKN050 
  FM031100 33007KT 6SM -RA SCT020 BKN035
