TAF KFLL 022110Z 0221/0324 24015G25KT P6SM SCT040 
  FM030100 VRB04KT P6SM SCT040 BKN150 
  FM031200 29007KT P6SM VCTS SCT015CB BKN035 OVC100 
  PROB30 0312/0318 4SM TSRA BKN020CB 
  FM031800 04010KT P6SM VCTS SCT015CB BKN035 OVC100 
  PROB30 0318/0324 4SM TSRA BKN020CB
