TAF KJAX 022337Z 0300/0324 32014KT P6SM OVC006 
  FM030100 34007KT P6SM BKN015 OVC030 
  FM030500 35005KT P6SM SCT007 BKN250 
  TEMPO 0308/0310 6SM BR 
  FM031500 05010KT P6SM FEW250
