TAF KMCO 022321Z 0300/0406 27010KT P6SM VCSH SCT015 SCT050 BKN100 
  FM030300 30010KT P6SM VCSH BKN020 BKN050 BKN180 
  FM030800 35011KT P6SM SCT030 SCT050 SCT080 
  FM031500 03011G18KT P6SM FEW030 SCT060 SCT250 
  FM032100 06012KT P6SM BKN060 
  FM040400 03006KT P6SM SCT100
