TAF KTLH 022326Z 0300/0324 34005KT P6SM SKC 
  TEMPO 0309/0313 4SM BR
