TAF KTPA 022334Z 0300/0406 30010KT P6SM VCSH BKN035 BKN080 OVC250 
  FM030200 35010KT P6SM VCSH BKN015 OVC100 
  FM030600 35009KT P6SM SCT015 BKN100 BKN250 
  FM031400 03008KT P6SM SCT015 BKN250
