METAR KEYW 022253Z 19005KT 10SM CLR 29/23 A2988 RMK AO2 SLP125 T02940233 $
