SPECI KJAX 022338Z 34006KT 1 1/2SM -RA BR OVC006 17/16 A2988 RMK AO2 RAB15 P0000 T01720161
