SPECI KMCO 022333Z 22011KT 10SM FEW011 FEW016 OVC160 22/19 A2984 RMK AO2 WSHFT 2248 RAE24 P0001 T02220194
