METAR KMIA 022253Z 26009KT 10SM FEW065 SCT250 32/17 A2986 RMK AO2 SLP111 T03220167 $
