METAR KTLH 022253Z 01006KT 10SM SCT035 21/13 A2989 RMK AO2 SLP121 T02060128
