METAR KTPA 022253Z 21004KT 10SM FEW014 BKN170 OVC220 23/20 A2986 RMK AO2 RAE31 SLP110 P0002 T02280200 $
